[{"OBJECT_NAME":"STARLINK-34980","OBJECT_ID":"2025-179Z","EPOCH":"2026-03-09T15:54:22.888224","MEAN_MOTION":15.05645298,"ECCENTRICITY":0.0002258,"INCLINATION":97.6034,"RA_OF_ASC_NODE":112.9269,"ARG_OF_PERICENTER":106.0664,"MEAN_ANOMALY":254.0812,"EPHEMERIS_TYPE":0,"CLASSIFICATION_TYPE":"U","NORAD_CAT_ID":65258,"ELEMENT_SET_NO":999,"REV_AT_EPOCH":3181,"BSTAR":-0.0002028248,"MEAN_MOTION_DOT":-2.986e-5,"MEAN_MOTION_DDOT":0},{"OBJECT_NAME":"CZ-2C DEB","OBJECT_ID":"2013-035C","EPOCH":"2026-03-09T23:28:11.376480","MEAN_MOTION":14.97090669,"ECCENTRICITY":0.00414021,"INCLINATION":98.2221,"RA_OF_ASC_NODE":340.898,"ARG_OF_PERICENTER":245.2603,"MEAN_ANOMALY":114.4306,"EPHEMERIS_TYPE":0,"CLASSIFICATION_TYPE":"U","NORAD_CAT_ID":39204,"ELEMENT_SET_NO":999,"REV_AT_EPOCH":67473,"BSTAR":0.0018072367,"MEAN_MOTION_DOT":0.00021197,"MEAN_MOTION_DDOT":0}]
